CCSDS_OMM_VERS = 2.0
CREATION_DATE  = 
ORIGINATOR     = 

OBJECT_NAME    = SL-3 R/B
OBJECT_ID      = 1988-032B
CENTER_NAME    = EARTH
REF_FRAME      = TEME
TIME_SYSTEM    = UTC
MEAN_ELEMENT_THEORY = SGP/SGP4

EPOCH          = 2026-03-26T21:56:56.518656
MEAN_MOTION    = 15.20094163
ECCENTRICITY   = .00261239
INCLINATION    = 97.5212
RA_OF_ASC_NODE = 69.1094
ARG_OF_PERICENTER = 169.8445
MEAN_ANOMALY   = 190.3323

EPHEMERIS_TYPE = 0
CLASSIFICATION_TYPE = U
NORAD_CAT_ID   = 19046
ELEMENT_SET_NO = 999
REV_AT_EPOCH   = 5472
BSTAR          = .2464257E-3
MEAN_MOTION_DOT = .5299E-4
MEAN_MOTION_DDOT = 0

CCSDS_OMM_VERS = 2.0
CREATION_DATE  = 
ORIGINATOR     = 

OBJECT_NAME    = SL-16 R/B
OBJECT_ID      = 1988-039B
CENTER_NAME    = EARTH
REF_FRAME      = TEME
TIME_SYSTEM    = UTC
MEAN_ELEMENT_THEORY = SGP/SGP4

EPOCH          = 2026-03-26T23:04:58.949760
MEAN_MOTION    = 14.19618457
ECCENTRICITY   = .00235745
INCLINATION    = 71.0164
RA_OF_ASC_NODE = 32.0240
ARG_OF_PERICENTER = 309.5650
MEAN_ANOMALY   = 50.3392

EPHEMERIS_TYPE = 0
CLASSIFICATION_TYPE = U
NORAD_CAT_ID   = 19120
ELEMENT_SET_NO = 999
REV_AT_EPOCH   = 96083
BSTAR          = .93762603E-4
MEAN_MOTION_DOT = .15E-5
MEAN_MOTION_DDOT = 0

CCSDS_OMM_VERS = 2.0
CREATION_DATE  = 
ORIGINATOR     = 

OBJECT_NAME    = COSMOS 1953
OBJECT_ID      = 1988-050A
CENTER_NAME    = EARTH
REF_FRAME      = TEME
TIME_SYSTEM    = UTC
MEAN_ELEMENT_THEORY = SGP/SGP4

EPOCH          = 2026-03-26T02:54:38.500416
MEAN_MOTION    = 15.28777394
ECCENTRICITY   = .00125013
INCLINATION    = 82.5080
RA_OF_ASC_NODE = 141.7191
ARG_OF_PERICENTER = 71.3179
MEAN_ANOMALY   = 288.9416

EPHEMERIS_TYPE = 0
CLASSIFICATION_TYPE = U
NORAD_CAT_ID   = 19210
ELEMENT_SET_NO = 999
REV_AT_EPOCH   = 4029
BSTAR          = .2107321E-3
MEAN_MOTION_DOT = .5939E-4
MEAN_MOTION_DDOT = 0

CCSDS_OMM_VERS = 2.0
CREATION_DATE  = 
ORIGINATOR     = 

OBJECT_NAME    = SL-8 R/B
OBJECT_ID      = 1988-053B
CENTER_NAME    = EARTH
REF_FRAME      = TEME
TIME_SYSTEM    = UTC
MEAN_ELEMENT_THEORY = SGP/SGP4

EPOCH          = 2026-03-26T23:15:21.415104
MEAN_MOTION    = 14.38927680
ECCENTRICITY   = .00214921
INCLINATION    = 74.0453
RA_OF_ASC_NODE = 80.6120
ARG_OF_PERICENTER = 257.6130
MEAN_ANOMALY   = 168.1023

EPHEMERIS_TYPE = 0
CLASSIFICATION_TYPE = U
NORAD_CAT_ID   = 19257
ELEMENT_SET_NO = 999
REV_AT_EPOCH   = 97908
BSTAR          = .12157951E-3
MEAN_MOTION_DOT = .349E-5
MEAN_MOTION_DDOT = 0

CCSDS_OMM_VERS = 2.0
CREATION_DATE  = 
ORIGINATOR     = 

OBJECT_NAME    = COSMOS 1975
OBJECT_ID      = 1988-093A
CENTER_NAME    = EARTH
REF_FRAME      = TEME
TIME_SYSTEM    = UTC
MEAN_ELEMENT_THEORY = SGP/SGP4

EPOCH          = 2026-03-26T11:42:02.448576
MEAN_MOTION    = 15.28289797
ECCENTRICITY   = .00133212
INCLINATION    = 82.5167
RA_OF_ASC_NODE = 100.8164
ARG_OF_PERICENTER = 109.4902
MEAN_ANOMALY   = 250.7778

EPHEMERIS_TYPE = 0
CLASSIFICATION_TYPE = U
NORAD_CAT_ID   = 19573
ELEMENT_SET_NO = 999
REV_AT_EPOCH   = 2197
BSTAR          = .21558555E-3
MEAN_MOTION_DOT = .5987E-4
MEAN_MOTION_DDOT = 0

CCSDS_OMM_VERS = 2.0
CREATION_DATE  = 
ORIGINATOR     = 

OBJECT_NAME    = SL-14 R/B
OBJECT_ID      = 1988-093B
CENTER_NAME    = EARTH
REF_FRAME      = TEME
TIME_SYSTEM    = UTC
MEAN_ELEMENT_THEORY = SGP/SGP4

EPOCH          = 2026-03-26T21:42:26.441280
MEAN_MOTION    = 14.85676659
ECCENTRICITY   = .00202758
INCLINATION    = 82.5337
RA_OF_ASC_NODE = 25.8858
ARG_OF_PERICENTER = 345.6586
MEAN_ANOMALY   = 76.7154

EPHEMERIS_TYPE = 0
CLASSIFICATION_TYPE = U
NORAD_CAT_ID   = 19574
ELEMENT_SET_NO = 999
REV_AT_EPOCH   = 357
BSTAR          = .65736296E-4
MEAN_MOTION_DOT = .596E-5
MEAN_MOTION_DDOT = 0

CCSDS_OMM_VERS = 2.0
CREATION_DATE  = 
ORIGINATOR     = 

OBJECT_NAME    = SL-16 R/B
OBJECT_ID      = 1988-102B
CENTER_NAME    = EARTH
REF_FRAME      = TEME
TIME_SYSTEM    = UTC
MEAN_ELEMENT_THEORY = SGP/SGP4

EPOCH          = 2026-03-26T12:05:54.132000
MEAN_MOTION    = 14.16154123
ECCENTRICITY   = .00150147
INCLINATION    = 70.9975
RA_OF_ASC_NODE = 116.1185
ARG_OF_PERICENTER = 336.1915
MEAN_ANOMALY   = 23.8512

EPHEMERIS_TYPE = 0
CLASSIFICATION_TYPE = U
NORAD_CAT_ID   = 19650
ELEMENT_SET_NO = 999
REV_AT_EPOCH   = 92927
BSTAR          = -.87481899E-4
MEAN_MOTION_DOT = -.221E-5
MEAN_MOTION_DDOT = 0

CCSDS_OMM_VERS = 2.0
CREATION_DATE  = 
ORIGINATOR     = 

OBJECT_NAME    = INTERCOSMOS 24
OBJECT_ID      = 1989-080A
CENTER_NAME    = EARTH
REF_FRAME      = TEME
TIME_SYSTEM    = UTC
MEAN_ELEMENT_THEORY = SGP/SGP4

EPOCH          = 2026-03-26T23:02:03.922368
MEAN_MOTION    = 12.59580288
ECCENTRICITY   = .11868173
INCLINATION    = 82.6011
RA_OF_ASC_NODE = 93.1544
ARG_OF_PERICENTER = 252.6975
MEAN_ANOMALY   = 94.1109

EPHEMERIS_TYPE = 0
CLASSIFICATION_TYPE = U
NORAD_CAT_ID   = 20261
ELEMENT_SET_NO = 999
REV_AT_EPOCH   = 66897
BSTAR          = .16134023E-3
MEAN_MOTION_DOT = .545E-5
MEAN_MOTION_DDOT = 0

CCSDS_OMM_VERS = 2.0
CREATION_DATE  = 
ORIGINATOR     = 

OBJECT_NAME    = SL-14 R/B
OBJECT_ID      = 1989-080C
CENTER_NAME    = EARTH
REF_FRAME      = TEME
TIME_SYSTEM    = UTC
MEAN_ELEMENT_THEORY = SGP/SGP4

EPOCH          = 2026-03-26T18:14:11.720832
MEAN_MOTION    = 12.50510065
ECCENTRICITY   = .12308762
INCLINATION    = 82.5959
RA_OF_ASC_NODE = 162.2326
ARG_OF_PERICENTER = 145.7510
MEAN_ANOMALY   = 222.9585

EPHEMERIS_TYPE = 0
CLASSIFICATION_TYPE = U
NORAD_CAT_ID   = 20262
ELEMENT_SET_NO = 999
REV_AT_EPOCH   = 66228
BSTAR          = .10187134E-3
MEAN_MOTION_DOT = .366E-5
MEAN_MOTION_DDOT = 0

CCSDS_OMM_VERS = 2.0
CREATION_DATE  = 
ORIGINATOR     = 

OBJECT_NAME    = DELTA 1 R/B
OBJECT_ID      = 1989-089B
CENTER_NAME    = EARTH
REF_FRAME      = TEME
TIME_SYSTEM    = UTC
MEAN_ELEMENT_THEORY = SGP/SGP4

EPOCH          = 2026-03-26T07:30:34.579872
MEAN_MOTION    = 14.50676211
ECCENTRICITY   = .00706183
INCLINATION    = 97.0694
RA_OF_ASC_NODE = 290.1060
ARG_OF_PERICENTER = 70.5092
MEAN_ANOMALY   = 290.3717

EPHEMERIS_TYPE = 0
CLASSIFICATION_TYPE = U
NORAD_CAT_ID   = 20323
ELEMENT_SET_NO = 999
REV_AT_EPOCH   = 89814
BSTAR          = .86452117E-4
MEAN_MOTION_DOT = .316E-5
MEAN_MOTION_DDOT = 0

CCSDS_OMM_VERS = 2.0
CREATION_DATE  = 
ORIGINATOR     = 

OBJECT_NAME    = ARIANE 40 R/B
OBJECT_ID      = 1990-005H
CENTER_NAME    = EARTH
REF_FRAME      = TEME
TIME_SYSTEM    = UTC
MEAN_ELEMENT_THEORY = SGP/SGP4

EPOCH          = 2026-03-26T03:27:11.493792
MEAN_MOTION    = 14.39880961
ECCENTRICITY   = .00108534
INCLINATION    = 98.3049
RA_OF_ASC_NODE = 145.3124
ARG_OF_PERICENTER = 150.0463
MEAN_ANOMALY   = 210.1349

EPHEMERIS_TYPE = 0
CLASSIFICATION_TYPE = U
NORAD_CAT_ID   = 20443
ELEMENT_SET_NO = 999
REV_AT_EPOCH   = 89517
BSTAR          = .97702013E-4
MEAN_MOTION_DOT = .265E-5
MEAN_MOTION_DDOT = 0

CCSDS_OMM_VERS = 2.0
CREATION_DATE  = 
ORIGINATOR     = 

OBJECT_NAME    = DELTA 2 R/B(1)
OBJECT_ID      = 1990-008B
CENTER_NAME    = EARTH
REF_FRAME      = TEME
TIME_SYSTEM    = UTC
MEAN_ELEMENT_THEORY = SGP/SGP4

EPOCH          = 2026-03-26T05:42:47.900160
MEAN_MOTION    = 15.58109959
ECCENTRICITY   = .0078698
INCLINATION    = 35.6039
RA_OF_ASC_NODE = 66.0740
ARG_OF_PERICENTER = 53.1388
MEAN_ANOMALY   = 307.6533

EPHEMERIS_TYPE = 0
CLASSIFICATION_TYPE = U
NORAD_CAT_ID   = 20453
ELEMENT_SET_NO = 999
REV_AT_EPOCH   = 92871
BSTAR          = .76494E-3
MEAN_MOTION_DOT = .69454E-3
MEAN_MOTION_DDOT = 0

